[{"OBJECT_NAME":"TIANHUI 4A","OBJECT_ID":"2021-134A","EPOCH":"2026-03-09T23:41:19.127616","MEAN_MOTION":15.45144231,"ECCENTRICITY":0.0011811,"INCLINATION":88.9797,"RA_OF_ASC_NODE":336.8124,"ARG_OF_PERICENTER":97.7034,"MEAN_ANOMALY":262.5567,"EPHEMERIS_TYPE":0,"CLASSIFICATION_TYPE":"U","NORAD_CAT_ID":50572,"ELEMENT_SET_NO":999,"REV_AT_EPOCH":23454,"BSTAR":0.00022158295,"MEAN_MOTION_DOT":0.0001055,"MEAN_MOTION_DDOT":0},{"OBJECT_NAME":"KUIPER-00075","OBJECT_ID":"2025-151G","EPOCH":"2026-03-09T15:30:47.554272","MEAN_MOTION":15.41855239,"ECCENTRICITY":0.0003756,"INCLINATION":51.87,"RA_OF_ASC_NODE":221.9898,"ARG_OF_PERICENTER":280.3148,"MEAN_ANOMALY":79.7417,"EPHEMERIS_TYPE":0,"CLASSIFICATION_TYPE":"U","NORAD_CAT_ID":64822,"ELEMENT_SET_NO":999,"REV_AT_EPOCH":3639,"BSTAR":0.00059995,"MEAN_MOTION_DOT":0.00025547,"MEAN_MOTION_DDOT":0}]
